[{"OBJECT_NAME":"NETSAT-1","OBJECT_ID":"2020-068W","EPOCH":"2026-03-09T22:42:38.711232","MEAN_MOTION":15.32042482,"ECCENTRICITY":0.00057337,"INCLINATION":97.8751,"RA_OF_ASC_NODE":63.2583,"ARG_OF_PERICENTER":18.5877,"MEAN_ANOMALY":341.5572,"EPHEMERIS_TYPE":0,"CLASSIFICATION_TYPE":"U","NORAD_CAT_ID":46506,"ELEMENT_SET_NO":999,"REV_AT_EPOCH":30009,"BSTAR":0.00059222329,"MEAN_MOTION_DOT":0.00018269,"MEAN_MOTION_DDOT":0},{"OBJECT_NAME":"STARLINK-34416","OBJECT_ID":"2025-137AB","EPOCH":"2026-03-09T22:29:58.788672","MEAN_MOTION":15.30138478,"ECCENTRICITY":0.00016653,"INCLINATION":53.1604,"RA_OF_ASC_NODE":334.023,"ARG_OF_PERICENTER":11.2658,"MEAN_ANOMALY":348.8379,"EPHEMERIS_TYPE":0,"CLASSIFICATION_TYPE":"U","NORAD_CAT_ID":64619,"ELEMENT_SET_NO":999,"REV_AT_EPOCH":4077,"BSTAR":0.0012194054,"MEAN_MOTION_DOT":0.00035862,"MEAN_MOTION_DDOT":0}]
